{
  "type": "FeatureCollection",
  "features": [
    {
      "type": "Feature",
      "properties": {
        "norad_id": 66848,
        "name": "STARLINK-36091",
        "group": "last-30-days",
        "lat": 14.571947335550242,
        "lon": -122.53086888326789,
        "alt_km": 346.52996516026815,
        "timestamp": "2025-12-20T16:47:35.024595+00:00",
        "meta_object_name": "STARLINK-36091",
        "meta_object_id": "2025-281A",
        "meta_epoch": "2025-12-20T12:00:02.000160",
        "meta_mean_motion": 15.74512078,
        "meta_eccentricity": 0.0001051,
        "meta_inclination": 43.0006,
        "meta_ra_of_asc_node": 74.8778,
        "meta_arg_of_pericenter": 279.6117,
        "meta_mean_anomaly": 185.7129,
        "meta_ephemeris_type": 0,
        "meta_classification_type": "U",
        "meta_norad_cat_id": 66848,
        "meta_element_set_no": 999,
        "meta_rev_at_epoch": 264,
        "meta_bstar": -0.01466,
        "meta_mean_motion_dot": -0.01911228,
        "meta_mean_motion_ddot": 0,
        "tle_line1": "1 66848U 25281A   25354.50002315 -.01911228  00000+0 -14660-1 0  9998",
        "tle_line2": "2 66848  43.0006  74.8778 0001051 279.6117 185.7129 15.74512078  2643"
      },
      "geometry": {
        "type": "Point",
        "coordinates": [
          -122.53086888326789,
          14.571947335550242
        ]
      }
    },
    {
      "type": "Feature",
      "properties": {
        "norad_id": 66849,
        "name": "STARLINK-36102",
        "group": "last-30-days",
        "lat": 13.313842009346454,
        "lon": -121.04801087291003,
        "alt_km": 346.70489808685215,
        "timestamp": "2025-12-20T16:47:35.024605+00:00",
        "meta_object_name": "STARLINK-36102",
        "meta_object_id": "2025-281B",
        "meta_epoch": "2025-12-20T12:00:02.000160",
        "meta_mean_motion": 15.74511529,
        "meta_eccentricity": 0.0001125,
        "meta_inclination": 43.0005,
        "meta_ra_of_asc_node": 74.8735,
        "meta_arg_of_pericenter": 278.4002,
        "meta_mean_anomaly": 188.8388,
        "meta_ephemeris_type": 0,
        "meta_classification_type": "U",
        "meta_norad_cat_id": 66849,
        "meta_element_set_no": 999,
        "meta_rev_at_epoch": 264,
        "meta_bstar": -0.01463,
        "meta_mean_motion_dot": -0.01907872,
        "meta_mean_motion_ddot": 0,
        "tle_line1": "1 66849U 25281B   25354.50002315 -.01907872  00000+0 -14630-1 0  9996",
        "tle_line2": "2 66849  43.0005  74.8735 0001125 278.4002 188.8388 15.74511529  2649"
      },
      "geometry": {
        "type": "Point",
        "coordinates": [
          -121.04801087291003,
          13.313842009346454
        ]
      }
    },
    {
      "type": "Feature",
      "properties": {
        "norad_id": 66850,
        "name": "STARLINK-36105",
        "group": "last-30-days",
        "lat": 12.042274996519527,
        "lon": -119.57617667218874,
        "alt_km": 346.95101106592847,
        "timestamp": "2025-12-20T16:47:35.024617+00:00",
        "meta_object_name": "STARLINK-36105",
        "meta_object_id": "2025-281C",
        "meta_epoch": "2025-12-20T12:00:02.000160",
        "meta_mean_motion": 15.74516929,
        "meta_eccentricity": 0.0001138,
        "meta_inclination": 43.0005,
        "meta_ra_of_asc_node": 74.8679,
        "meta_arg_of_pericenter": 283.5155,
        "meta_mean_anomaly": 185.6422,
        "meta_ephemeris_type": 0,
        "meta_classification_type": "U",
        "meta_norad_cat_id": 66850,
        "meta_element_set_no": 999,
        "meta_rev_at_epoch": 264,
        "meta_bstar": -0.01472,
        "meta_mean_motion_dot": -0.01918387,
        "meta_mean_motion_ddot": 0,
        "tle_line1": "1 66850U 25281C   25354.50002315 -.01918387  00000+0 -14720-1 0  9991",
        "tle_line2": "2 66850  43.0005  74.8679 0001138 283.5155 185.6422 15.74516929  2641"
      },
      "geometry": {
        "type": "Point",
        "coordinates": [
          -119.57617667218874,
          12.042274996519527
        ]
      }
    },
    {
      "type": "Feature",
      "properties": {
        "norad_id": 66851,
        "name": "STARLINK-36094",
        "group": "last-30-days",
        "lat": 10.769497690767677,
        "lon": -118.1244825607399,
        "alt_km": 347.0876415524426,
        "timestamp": "2025-12-20T16:47:35.024629+00:00",
        "meta_object_name": "STARLINK-36094",
        "meta_object_id": "2025-281D",
        "meta_epoch": "2025-12-20T12:00:02.000160",
        "meta_mean_motion": 15.74531229,
        "meta_eccentricity": 0.0001164,
        "meta_inclination": 43.0003,
        "meta_ra_of_asc_node": 74.8636,
        "meta_arg_of_pericenter": 282.4768,
        "meta_mean_anomaly": 188.5848,
        "meta_ephemeris_type": 0,
        "meta_classification_type": "U",
        "meta_norad_cat_id": 66851,
        "meta_element_set_no": 999,
        "meta_rev_at_epoch": 264,
        "meta_bstar": -0.014817,
        "meta_mean_motion_dot": -0.01930432,
        "meta_mean_motion_ddot": 0,
        "tle_line1": "1 66851U 25281D   25354.50002315 -.01930432  00000+0 -14817-1 0  9994",
        "tle_line2": "2 66851  43.0003  74.8636 0001164 282.4768 188.5848 15.74531229  2644"
      },
      "geometry": {
        "type": "Point",
        "coordinates": [
          -118.1244825607399,
          10.769497690767677
        ]
      }
    },
    {
      "type": "Feature",
      "properties": {
        "norad_id": 66852,
        "name": "STARLINK-35992",
        "group": "last-30-days",
        "lat": 9.483527934075738,
        "lon": -116.6778312351769,
        "alt_km": 347.399065561106,
        "timestamp": "2025-12-20T16:47:35.024640+00:00",
        "meta_object_name": "STARLINK-35992",
        "meta_object_id": "2025-281E",
        "meta_epoch": "2025-12-20T12:00:02.000160",
        "meta_mean_motion": 15.74508545,
        "meta_eccentricity": 0.0001287,
        "meta_inclination": 43.0007,
        "meta_ra_of_asc_node": 74.859,
        "meta_arg_of_pericenter": 286.9918,
        "meta_mean_anomaly": 186.0043,
        "meta_ephemeris_type": 0,
        "meta_classification_type": "U",
        "meta_norad_cat_id": 66852,
        "meta_element_set_no": 999,
        "meta_rev_at_epoch": 264,
        "meta_bstar": -0.014649,
        "meta_mean_motion_dot": -0.0190992,
        "meta_mean_motion_ddot": 0,
        "tle_line1": "1 66852U 25281E   25354.50002315 -.01909920  00000+0 -14649-1 0  9996",
        "tle_line2": "2 66852  43.0007  74.8590 0001287 286.9918 186.0043 15.74508545  2645"
      },
      "geometry": {
        "type": "Point",
        "coordinates": [
          -116.6778312351769,
          9.483527934075738
        ]
      }
    },
    {
      "type": "Feature",
      "properties": {
        "norad_id": 66853,
        "name": "STARLINK-35986",
        "group": "last-30-days",
        "lat": 8.194900052298452,
        "lon": -115.24658850717866,
        "alt_km": 347.53475857040394,
        "timestamp": "2025-12-20T16:47:35.024650+00:00",
        "meta_object_name": "STARLINK-35986",
        "meta_object_id": "2025-281F",
        "meta_epoch": "2025-12-20T12:00:02.000160",
        "meta_mean_motion": 15.74518627,
        "meta_eccentricity": 0.0001329,
        "meta_inclination": 43.0004,
        "meta_ra_of_asc_node": 74.8538,
        "meta_arg_of_pericenter": 285.3115,
        "meta_mean_anomaly": 189.5967,
        "meta_ephemeris_type": 0,
        "meta_classification_type": "U",
        "meta_norad_cat_id": 66853,
        "meta_element_set_no": 999,
        "meta_rev_at_epoch": 264,
        "meta_bstar": -0.014745,
        "meta_mean_motion_dot": -0.01921585,
        "meta_mean_motion_ddot": 0,
        "tle_line1": "1 66853U 25281F   25354.50002315 -.01921585  00000+0 -14745-1 0  9995",
        "tle_line2": "2 66853  43.0004  74.8538 0001329 285.3115 189.5967 15.74518627  2649"
      },
      "geometry": {
        "type": "Point",
        "coordinates": [
          -115.24658850717866,
          8.194900052298452
        ]
      }
    },
    {
      "type": "Feature",
      "properties": {
        "norad_id": 66854,
        "name": "STARLINK-36087",
        "group": "last-30-days",
        "lat": 6.902355826619111,
        "lon": -113.82532267186116,
        "alt_km": 347.62925659145185,
        "timestamp": "2025-12-20T16:47:35.024661+00:00",
        "meta_object_name": "STARLINK-36087",
        "meta_object_id": "2025-281G",
        "meta_epoch": "2025-12-20T12:00:02.000160",
        "meta_mean_motion": 15.74514192,
        "meta_eccentricity": 0.0001363,
        "meta_inclination": 43.0005,
        "meta_ra_of_asc_node": 74.849,
        "meta_arg_of_pericenter": 281.0518,
        "meta_mean_anomaly": 195.7743,
        "meta_ephemeris_type": 0,
        "meta_classification_type": "U",
        "meta_norad_cat_id": 66854,
        "meta_element_set_no": 999,
        "meta_rev_at_epoch": 264,
        "meta_bstar": -0.014687,
        "meta_mean_motion_dot": -0.01914701,
        "meta_mean_motion_ddot": 0,
        "tle_line1": "1 66854U 25281G   25354.50002315 -.01914701  00000+0 -14687-1 0  9993",
        "tle_line2": "2 66854  43.0005  74.8490 0001363 281.0518 195.7743 15.74514192  2640"
      },
      "geometry": {
        "type": "Point",
        "coordinates": [
          -113.82532267186116,
          6.902355826619111
        ]
      }
    }
  ]
}